#aV2007  2 21  0  0   .00000000      96 DD+AD WGS84 FIT  NGA
## 1415 259200.00000000   900.00000000 54152  .0000000000000
+   30     1  2  3  4  5  6  7  8  9 10 11 12 13 14 16 17 18
+         19 20 21 22 23 24 25 26 27 28 29 30 31  0  0  0  0
+          0  0  0  0  0  0  0  0  0  0  0  0  0  0  0  0  0
+          0  0  0  0  0  0  0  0  0  0  0  0  0  0  0  0  0
+          0  0  0  0  0  0  0  0  0  0  0  0  0  0  0  0  0
++         0  0  0  0  0  0  0  0  0  0  0  0  0  0  0  0  0
++         0  0  0  0  0  0  0  0  0  0  0  0  0  0  0  0  0
++         0  0  0  0  0  0  0  0  0  0  0  0  0  0  0  0  0
++         0  0  0  0  0  0  0  0  0  0  0  0  0  0  0  0  0
++         0  0  0  0  0  0  0  0  0  0  0  0  0  0  0  0  0
%c cc cc ccc ccc cccc cccc cccc cccc ccccc ccccc ccccc ccccc
%c cc cc ccc ccc cccc cccc cccc cccc ccccc ccccc ccccc ccccc
%f  0.0000000  0.000000000  0.00000000000  0.000000000000000
%f  0.0000000  0.000000000  0.00000000000  0.000000000000000
%i    0    0    0    0      0      0      0      0         0
%i    0    0    0    0      0      0      0      0         0
/*      NGA, ST. LOUIS,MO.                                  
/*   EPHEMERIS COMPUTED FROM  3 DAYS OF DATA                
/* CCCCCCCCCCCCCCCCCCCCCCCCCCCCCCCCCCCCCCCCCCCCCCCCCCCCCCCCC
/* CCCCCCCCCCCCCCCCCCCCCCCCCCCCCCCCCCCCCCCCCCCCCCCCCCCCCCCCC
*  2007  2 21 21 45   .00000000                                                 
P  1 -14486.884374   1465.719000 -22009.033992    109.275614                    
V  1  -6209.620808 -27677.246866   2166.012804       .024207                    
P  2  21586.342320 -10863.119572 -10955.197815     84.389547                    
V  2  -7434.784701  11857.771876 -27239.991006       .033376                    
P  3 -14647.465423   6089.534577  21095.279388     17.371405                    
V  3 -10050.881253 -25500.270160    706.388253       .058228                    
P  4  18197.090183   1731.863907 -19455.695199      5.010240                    
V  4 -16568.914516  18088.634829 -13572.348193       .018279                    
P  5   4540.597960 -15193.142217 -21531.772395     38.668611                    
V  5  26458.075582   4805.808115   2362.469315       .047437                    
P  6  -5862.870377 -25687.636872  -2925.583767     44.055039                    
V  6   4724.422923   2657.060160 -30881.276604       .253087                    
P  7  -9151.800102 -24883.527461    718.998789    407.991392                    
V  7   3318.955031  -1696.631341 -31214.703056      -.126191                    
P  8  10500.883291  10466.179149  21923.794949    -97.524966                    
V  8 -20652.187930  19010.687969    390.472465      -.012864                    
P  9  14159.344581 -21671.780298  -5930.861068     58.592240                    
V  9   6613.733515  -3221.064259  30791.408206       .016467                    
P 10  22855.021709  -3010.403262  13365.968981     97.813772                    
V 10  15865.877965   6382.851524 -25168.886318       .005120                    
P 11 -10755.167946  23427.154133  -5853.330863      7.975919                    
V 11  -8312.541805   3265.427330  29142.189970       .012571                    
P 12   7041.883829 -13701.974607 -21523.685671    -48.930505                    
V 12  26631.372840   7219.804561   4138.995012       .029609                    
P 13   6386.136190  25806.618024    187.972880    146.001012                    
V 13  -1586.092739    745.440433 -32441.102932       .040144                    
P 14 -14719.484865 -15467.425783 -15757.932202      9.065004                    
V 14  -3709.560441 -19779.779945  22694.194130       .014233                    
P 16 -25379.644582  -1107.096567   8065.555695    124.498301                    
V 16  -9097.411158  -4987.513934 -29488.195162       .035938                    
P 17  15187.661490  15925.946628 -14955.436689     77.904881                    
V 17   3056.330946  18803.953930  23008.372940      -.013914                    
P 18 -14076.130314 -16147.833553  16039.760550   -253.574101                    
V 18  19670.459300   4095.751880  21245.362095       .002415                    
P 19 -10062.129759  16028.500110  18691.559577      7.363803                    
V 19  -6343.990196 -22761.961400  16283.476793       .040908                    
P 20  -4846.590091  14656.398081 -21708.692114    -22.485822                    
V 20 -26528.147218  -6701.511597   1448.299067      -.001809                    
P 21  -4622.557208 -16244.988367  20472.903931     71.857218                    
V 21  19720.411688 -16973.844731  -9619.567167       .009531                    
P 22 -22822.387301 -12008.114779   6554.107494    168.669031                    
V 22   8624.233680   -355.463619  30072.794386       .019915                    
P 23   -783.293433  24279.992048 -10586.299255    151.061461                    
V 23  -5825.410522 -12264.867314 -28094.105183       .017707                    
P 24  11514.287544 -21393.289745  11311.400551     79.323907                    
V 24  11799.851102  -7790.013312 -26905.919629       .032962                    
P 25 -20218.089579  14248.082528  -9535.763989    334.767560                    
V 25   5949.278189 -11419.151219 -28344.039915      -.180642                    
P 26   9885.745591 -13939.136975  19734.628928    -54.689008                    
V 26   7297.962840  25082.997571  14326.746041      -.186599                    
P 27   3253.299444  17652.425111  20137.100260     95.437223                    
V 27 -16771.534519  17556.445766 -13363.358770       .021703                    
P 28  20725.140033  13469.171528  10503.961602      6.844812                    
V 28 -12840.703020  -1437.063001  27695.681321      -.007818                    
P 29  12123.379717  -9702.202426  21711.867425    354.790625                    
V 29   7851.816348  25875.335177   7595.700518       .086818                    
P 30  -6099.991492 -16362.059094 -20345.565971     26.056517                    
V 30  24823.438341   4387.464495 -11026.434577       .011351                    
P 31 -18921.716585    958.762846 -18436.324308     10.316620                    
V 31  15535.340779 -18102.333954 -16645.823402       .033938                    
EOF
